MALLIGYONG-1            
1 58400U 23179A   24167.60300890  .00005865  00000+0  26713-3 0  9990
2 58400  97.4044  54.4801 0002329 146.9655 213.1727 15.21053918 31485
